#dP2024  1 26 12  0  0.00000000      96 __u+U IGS20 EXT  IAC
## 2298 475200.00000000   900.00000000 60335 0.5000000000000
+  118   C06C07C08C09C10C11C12C13C14C16C19C20C21C22C23C24C25
+        C26C27C28C29C30C32C33C34C35C36C37C38C39C40C41C42C43
+        C44C45C46E02E03E04E05E07E08E09E10E11E12E13E14E15E18
+        E19E21E24E25E26E27E30E31E33E34E36G02G03G04G05G06G07
+        G08G09G10G11G12G13G14G15G16G17G18G19G20G21G22G23G24
+        G25G26G28G29G30G31G32J02J03J04R01R02R03R04R05R07R08
+        R09R11R12R13R14R15R16R17R18R19R20R21R22R24R25R26  0
++        10  9  9  9 10  7  8 10 10 10  7  7  7  8  9  7  8
++         9  7  6  9  7  7  9  7  9  9  8 10  9 10  9 10  7
++         8  8  8  7  7  6  8  7  7  6  9  8  7  7  8  6  8
++         8  7  7  6  6  7  7  7  6  7  8  7  7  7  6  7  6
++         8  7  6  7  8  7  8  8  6  6  7  8  7  7  6  6  6
++         7  6  7  8  6  6  8  9  9 10  5  7  9  8 10 10  9
++         8  7  7  8  8  9  9 10  7 10 10  8  9 10  7  8  0
%c M  cc GPS ccc cccc cccc cccc cccc ccccc ccccc ccccc ccccc
%c cc cc ccc ccc cccc cccc cccc cccc ccccc ccccc ccccc ccccc
%f  0.0000000  0.000000000  0.00000000000  0.000000000000000
%f  0.0000000  0.000000000  0.00000000000  0.000000000000000
%i    0    0    0    0      0      0      0      0         0
%i    0    0    0    0      0      0      0      0         0
/* IAC                                ULTRA-RAPID PREDICTION
/* S/V CLOCKS ARE ALIGNED TO GNSS TIME                      
/* G:C1WC2W R:C1PC2P E:C1XC5X C:C2IC6I J:C1CC2S             
/* PCV:IGS20_2290 OL/AL:FES2004  NONE     YN ORB:CoN CLK:CoN
*  2024 01 27  1  0  0.00000000
PC06  -4593.772312  25245.394676  33535.916157     72.080831
PC07 -16930.339812  33848.598474 -18686.955707   -702.201572
PC08  -4992.889256  40020.314895 -11887.839909     83.964941
PC09   5467.558293  29295.060417  30486.661341   -406.792570
PC10 -10779.900171  33748.842549 -22905.495953    110.032099
PC11  -3190.571220  15060.677824 -23202.598400    378.727176
PC12 -21862.509369   6146.297267 -16172.039139    785.512482
PC13    577.924727  41833.091455  -3820.862316    411.539069
PC14 -10192.320639  23388.149258  11388.556875     54.231783
PC16  -5514.703623  24360.094853  34267.987685   -304.207215
PC19   1779.375770 -20869.230955 -18404.051798   -933.200559
PC20  15972.457787 -22473.345768  -4201.907078   -103.582735
PC21 -21796.714027  10551.768976 -13870.862972   -963.448006
PC22 -14301.019449  -7166.164473 -22868.852700   -132.670708
PC23  15969.383882  19278.074532 -12330.585757   -786.223773
PC24  -7965.920776  18936.141274  18851.469852    827.312054
PC25   6692.705487  26769.686082   4069.514916    311.394396
PC26 -16780.846088    852.497574  22262.572064   -240.441460
PC27  26459.006374   -805.053133   8838.264021    262.441663
PC28  25017.873326  10194.587441  -6994.918050    199.309778
PC29  -7805.543957 -16384.457730  21194.111280    233.535521
PC30  14123.605798 -12342.783187  20664.387651    -18.663242
PC32  21706.323959 -10587.500471  13989.297618   -558.881656
PC33  -1721.497486  20965.878202  18349.703354   -944.910265
PC34 -12513.265559  13071.113506 -21247.414432    355.904096
PC35 -25325.046005  -9304.968875   7035.930500    447.976831
PC36  -5661.859256 -26936.379950  -4628.736329    -37.570641
PC37  16917.444811     30.009310 -22188.383034   -933.119123
PC38  -9542.227066  36373.211231 -18866.516523    132.966004
PC39 -12480.280777  20694.318904  34589.690897     -6.848918
PC40 -24898.537549  28844.158273 -18335.188799    -53.821266
PC41  13779.214684   7939.770509  22985.837492   -883.331944
PC42 -16851.884181  22101.635962   2707.502579   -460.913057
PC43   6762.012776  16551.727729 -21439.647495     57.987959
PC44 -26447.316680   1792.682767  -8678.669959    365.942799
PC45 -15950.099283 -19129.902551  12600.766237    -65.989096
PC46   7259.742659 -19712.872579 -18404.214752   -118.877624
PE02   8963.744337  19890.674041 -20005.219894     98.351032
PE03  16647.160985  11173.583462  21769.540863    -89.685163
PE04 -28496.765804   2345.282933  -7646.117826   -312.972250
PE05  -4728.175178  17999.523122  23020.337635   4714.172566
PE07  23787.321804 -14167.891727 -10458.256775   -100.512191
PE08  28342.696523  -1921.567841   8303.335677   -214.255938
PE09 -23884.381549  14071.668001  10393.653511   -313.962406
PE10 -19710.155637    537.339957 -22075.446512   -597.224184
PE11 -12396.851208  10316.008570 -24822.213477   3272.778573
PE12 -23303.095645  -8197.746881 -16286.772684   -880.045129
PE13  12924.144742  -9653.265176  24829.053642    -20.009497
PE14 -30385.438911   8984.636127  -2341.507515     21.934537
PE15  23410.585357   8695.954798  15910.788477    -82.385760
PE18  24064.946573  -2676.109203  -2812.082087    256.620668
PE19 -14356.125324 -12362.275472 -22735.483690   -734.428399
PE21   4067.651598 -28894.956077   4988.945045   -575.901607
PE24 -15554.347733  21008.882587  13839.993914   -564.227323
PE25  -4326.345794  28908.294959  -4631.504545      0.041204
PE26  -5443.295009 -22378.844601  18603.412626    350.930540
PE27  15325.494413 -21407.258268 -13549.507211   -259.351387
PE30  17442.363191  -1039.420941 -23911.499298   -857.044946
PE31 -17418.635701   1372.003609  23890.695873    -14.636434
PE33 -19719.705512 -21901.840241   2775.980607      6.611630
PE34  20064.871985  21648.144863  -2198.829224    -91.217338
PE36   4964.310948  22075.659981 -19081.656470   -177.393663
PG02  22278.513521  14160.708204   4467.193722   -494.881867
PG03  13001.310085   7708.535279  21711.859356    153.064339
PG04  23340.829217   3037.531697  12447.552571    276.289271
PG05      0.000000      0.000000      0.000000   -159.467616
PG06   1284.770011 -17314.268632  20136.967371    430.360636
PG07  18106.744716  -1458.089497 -19048.473642    -47.133832
PG08  17542.262824   8081.964248 -18501.614354   -164.047568
PG09  25535.773291  -7358.750026    903.775525     71.847816
PG10 -10702.525393  22927.208862  -7301.774373    -70.896381
PG11  -8876.791601 -21826.885491  12329.783153   -554.414320
PG12 -12731.696515  -8804.564838  21306.323553   -471.901645
PG13  -7758.690343 -13788.070981 -21568.846669    619.741332
PG14  13450.061656 -20222.318220 -10508.305188    309.428025
PG15 -18136.692201  -6895.232272 -18713.333522    121.346633
PG16   1558.331198  23117.411421 -12886.841507   -375.841592
PG17  19905.591957 -13080.791762  12333.135185    718.806127
PG18 -16836.782863   2751.546900 -20389.501672   -541.624141
PG19  11737.181325 -14818.567573  18318.451709    432.113967
PG20  -1473.644548 -26199.743771  -4596.300238    389.838795
PG21  20981.242818  17128.145444   -312.911201    137.070622
PG22  10320.706590 -24470.614126  -2491.864763     41.445386
PG23 -14921.364780  13207.159088 -17443.988691    143.403843
PG24 -21588.640721 -15739.206872   1530.339470   -421.168823
PG25 -15931.143859   4006.723594  20478.874785    486.620306
PG26  -2933.345713  26132.098089  -1949.419693    196.480625
PG28  -3752.631753  16117.122605  20752.062515   -111.097063
PG29 -26226.186324   4002.931254   2081.669072   -608.086833
PG30  10256.490940 -11915.346005 -21275.120778   -440.465562
PG31   4483.764088  20466.614612  15868.843320   -227.516888
PG32 -16236.520467  15339.877120  14404.660553   -607.904253
PJ02 -32188.100293  24996.005464  15991.396673     -1.472448
PJ03 -24814.673374  17757.801020 -24462.037187     -0.200011
PJ04 -23483.682146  35269.293255   4420.692043     78.181229
PR01  17027.504825  -2570.611861  18817.870725     75.562986
PR02  21036.223881 -13951.489136   3968.649910    -22.446067
PR03  12713.057680 -17855.263517 -13052.612323     93.354224
PR04  -2092.523804 -11612.491375 -22585.688890    220.777470
PR05 -15911.327705    637.124273 -19903.812261    125.935874
PR07 -11935.947782  17728.791890  13925.516250     74.447634
PR08   2546.056589  11534.233032  22665.620713    -74.170532
PR09  -9203.720991   9784.802793  21712.778808    166.603516
PR11   6368.072644  24154.903339  -5196.900985     36.332790
PR12  11457.479775  10116.942906 -20399.146018     36.058952
PR13   9805.587908  -7068.440473 -22484.002218    -43.726754
PR14   1563.663428 -23097.660806 -10689.126415     25.977173
PR15  -6835.810270 -23658.561532   6656.534367     82.730742
PR16 -11371.414549 -10355.460688  20341.483611     22.764802
PR17   2237.618902 -10495.244236  23155.260504     55.930297
PR18 -14058.194566 -13782.386560  16206.933879    124.211482
PR19 -22641.818944 -11476.963725   2508.130499   -263.531136
PR20 -18897.913836   -239.806397 -17092.904406   -107.370015
PR21  -1962.236033  10515.481638 -23150.216067    -72.098827
PR22  14515.417765  14424.963646 -15209.312538    105.097106
PR24  18668.285228  -1221.012012  17356.112757    -41.471955
PR25  -2732.433430  10693.468983 -22987.018519     63.881891
PR26   1741.515457  12067.509113  22430.384308   -201.459582
EOF
